NORAD_CAT_ID,OBJECT_NAME,OBJECT_TYPE,EPOCH,MEAN_MOTION,ECCENTRICITY,INCLINATION,RA_OF_ASC_NODE,ARG_OF_PERICENTER,MEAN_ANOMALY,BSTAR,MEAN_MOTION_DOT,MEAN_MOTION_DDOT,TLE_LINE0,TLE_LINE1,TLE_LINE2,SEMIMAJOR_AXIS,PERIOD,APOGEE,PERIGEE,DECAYED
52113.0,STARLINK-3736,PAYLOAD,2024-03-18 07:40:33,15.0884132,0.0001437,53.217,77.4758,92.9339,267.1818,7.9128e-05,9.72e-06,0.0,0 STARLINK-3736,1 52113U 22029AB  24078.31982826  .00000972  00000-0  79128-4 0  9996,2 52113  53.2170  77.4758 0001437  92.9339 267.1818 15.08841320111884,6917.876,95.437,540.735,538.747,0.0
52113.0,STARLINK-3736,PAYLOAD,2024-03-19 09:06:42,15.08847818,0.0001502,53.2175,72.7148,91.4614,268.6551,0.00012418,1.689e-05,0.0,0 STARLINK-3736,1 52113U 22029AB  24079.37966264  .00001689  00000-0  12418-3 0  9995,2 52113  53.2175  72.7148 0001502  91.4614 268.6551 15.08847818112040,6917.856,95.437,540.761,538.682,0.0
52113.0,STARLINK-3736,PAYLOAD,2024-03-20 08:57:29,15.08845367,0.0001484,53.2175,68.253,101.0238,259.0921,8.6368e-05,1.087e-05,0.0,0 STARLINK-3736,1 52113U 22029AB  24080.37326268  .00001087  00000-0  86368-4 0  9999,2 52113  53.2175  68.2530 0001484 101.0238 259.0921 15.08845367112192,6917.864,95.437,540.756,538.702,0.0
52113.0,STARLINK-3736,PAYLOAD,2024-03-21 05:37:31,15.08840112,0.0001428,53.2171,64.3865,96.1042,264.0113,-6.8144e-06,-3.96e-06,0.0,0 STARLINK-3736,1 52113U 22029AB  24081.23438769 -.00000396  00000-0 -68144-5 0  9992,2 52113  53.2171  64.3865 0001428  96.1042 264.0113 15.08840112112328,6917.88,95.438,540.733,538.757,0.0
52113.0,STARLINK-3736,PAYLOAD,2024-03-21 08:48:17,15.08839389,0.0001437,53.2172,63.7922,96.3767,263.7389,-1.2273e-05,-4.83e-06,0.0,0 STARLINK-3736,1 52113U 22029AB  24081.36686819 -.00000483  00000-0 -12273-4 0  9995,2 52113  53.2172  63.7922 0001437  96.3767 263.7389 15.08839389112349,6917.882,95.438,540.741,538.753,0.0
52113.0,STARLINK-3736,PAYLOAD,2024-03-22 03:52:54,15.0883999,0.0001406,53.2174,60.2237,95.9945,264.1208,3.9789e-05,3.45e-06,0.0,0 STARLINK-3736,1 52113U 22029AB  24082.16174715  .00000345  00000-0  39789-4 0  9997,2 52113  53.2174  60.2237 0001406  95.9945 264.1208 15.08839990112467,6917.88,95.438,540.718,538.773,0.0
52113.0,STARLINK-3736,PAYLOAD,2024-03-22 22:57:33,15.08833574,0.0001367,53.2172,56.6565,96.4977,263.6171,4.8141e-05,4.78e-06,0.0,0 STARLINK-3736,1 52113U 22029AB  24082.95663291  .00000478  00000-0  48141-4 0  9995,2 52113  53.2172  56.6565 0001367  96.4977 263.6171 15.08833574112583,6917.9,95.438,540.711,538.819,0.0
52113.0,STARLINK-3736,PAYLOAD,2024-03-23 03:43:43,15.08821118,0.000134,53.2173,55.7642,91.6671,268.4474,-5.3733e-05,-1.142e-05,0.0,0 STARLINK-3736,1 52113U 22029AB  24083.15536544 -.00001142  00000-0 -53733-4 0  9992,2 52113  53.2173  55.7642 0001340  91.6671 268.4474 15.08821118112613,6917.938,95.439,540.73,538.876,0.0
52113.0,STARLINK-3736,PAYLOAD,2024-03-24 05:09:52,15.08849734,0.0002015,53.2191,51.0154,126.2431,233.8748,0.00012292,1.669e-05,0.0,0 STARLINK-3736,1 52113U 22029AB  24084.21518661  .00001669  00000-0  12292-3 0  9996,2 52113  53.2191  51.0154 0002015 126.2431 233.8748 15.08849734112770,6917.851,95.437,541.11,538.322,0.0
52113.0,STARLINK-3736,PAYLOAD,2024-03-24 06:45:14,15.08857833,0.0001358,53.2174,50.711,74.5832,285.531,0.0002572,3.81e-05,0.0,0 STARLINK-3736,1 52113U 22029AB  24084.28142012  .00003810  00000-0  25720-3 0  9996,2 52113  53.2174  50.7110 0001358  74.5832 285.5310 15.08857833112787,6917.826,95.436,540.63,538.751,0.0
52113.0,STARLINK-3736,PAYLOAD,2024-03-25 05:00:40,15.08833256,0.0001379,53.2172,46.5452,94.8531,265.2619,0.00013984,1.938e-05,0.0,0 STARLINK-3736,1 52113U 22029AB  24085.20879954  .00001938  00000-0  13984-3 0  9999,2 52113  53.2172  46.5452 0001379  94.8531 265.2619 15.08833256112927,6917.901,95.438,540.72,538.812,0.0
52113.0,STARLINK-3736,PAYLOAD,2024-03-25 14:32:59,15.08837673,0.0001417,53.2184,44.7613,77.6276,282.4875,5.5248e-05,5.91e-06,0.0,0 STARLINK-3736,1 52113U 22029AB  24085.60624133  .00000591  00000-0  55248-4 0  9994,2 52113  53.2184  44.7613 0001417  77.6276 282.4875 15.08837673112985,6917.888,95.438,540.733,538.772,0.0
52113.0,STARLINK-3736,PAYLOAD,2024-03-26 04:51:29,15.08827116,0.000169,53.2185,42.0845,92.2997,267.8189,-0.00025421,-4.33e-05,0.0,0 STARLINK-3736,1 52113U 22029AB  24086.20242137 -.00004330  00000-0 -25421-3 0  9997,2 52113  53.2185  42.0845 0001690  92.2997 267.8189 15.08827116113077,6917.92,95.438,540.954,538.616,0.0
52113.0,STARLINK-3736,PAYLOAD,2024-03-26 06:26:51,15.0883494,0.0001506,53.2182,41.7866,84.8366,275.2798,-0.0002509,-4.278e-05,0.0,0 STARLINK-3736,1 52113U 22029AB  24086.26865702 -.00004278  00000-0 -25090-3 0  9995,2 52113  53.2182  41.7866 0001506  84.8366 275.2798 15.08834940113089,6917.896,95.438,540.803,538.719,0.0
52113.0,STARLINK-3736,PAYLOAD,2024-03-26 14:23:47,15.08838035,0.0001465,53.2177,40.3031,118.9873,241.1267,-0.00016825,-2.965e-05,0.0,0 STARLINK-3736,1 52113U 22029AB  24086.59985188 -.00002965  00000-0 -16825-3 0  9999,2 52113  53.2177  40.3031 0001465 118.9873 241.1267 15.08838035113136,6917.886,95.438,540.765,538.738,0.0
52113.0,STARLINK-3736,PAYLOAD,2024-03-27 03:06:51,15.08837408,0.000109,53.2184,37.9244,88.3771,271.7346,0.00016509,2.34e-05,0.0,0 STARLINK-3736,1 52113U 22029AB  24087.12976709  .00002340  00000-0  16509-3 0  9992,2 52113  53.2184  37.9244 0001090  88.3771 271.7346 15.08837408113212,6917.888,95.438,540.507,538.999,0.0
52113.0,STARLINK-3736,PAYLOAD,2024-03-27 14:14:31,15.08873719,0.0001771,53.2186,35.841,126.4321,233.6834,0.00010044,1.312e-05,0.0,0 STARLINK-3736,1 52113U 22029AB  24087.59341998  .00001312  00000-0  10044-3 0  9995,2 52113  53.2186  35.8410 0001771 126.4321 233.6834 15.08873719113288,6917.777,95.435,540.867,538.417,0.0
52113.0,STARLINK-3736,PAYLOAD,2024-03-28 02:57:38,15.08843539,0.0001446,53.2178,33.4623,98.4957,261.6199,0.00024108,3.551e-05,0.0,0 STARLINK-3736,1 52113U 22029AB  24088.12336767  .00003551  00000-0  24108-3 0  9996,2 52113  53.2178  33.4623 0001446  98.4957 261.6199 15.08843539113362,6917.87,95.437,540.735,538.734,0.0
52113.0,STARLINK-3736,PAYLOAD,2024-03-28 06:08:24,15.08854729,0.0001449,53.2177,32.8682,94.309,265.8067,0.00013629,1.883e-05,0.0,0 STARLINK-3736,1 52113U 22029AB  24088.25584117  .00001883  00000-0  13629-3 0  9996,2 52113  53.2177  32.8682 0001449  94.3090 265.8067 15.08854729113380,6917.835,95.437,540.703,538.698,0.0
52113.0,STARLINK-3736,PAYLOAD,2024-03-28 20:26:52,15.08849388,0.0001527,53.2191,30.1902,97.0985,263.018,0.0006554,0.00010161,0.0,0 STARLINK-3736,1 52113U 22029AB  24088.85200150  .00010161  00000-0  65540-3 0  9992,2 52113  53.2191  30.1902 0001527  97.0985 263.0180 15.08849388113473,6917.852,95.437,540.773,538.66,0.0
52113.0,STARLINK-3736,PAYLOAD,2024-03-29 05:59:11,15.08843896,0.0001474,53.2198,28.4077,94.7317,265.3844,0.00027079,4.025e-05,0.0,0 STARLINK-3736,1 52113U 22029AB  24089.24944182  .00004025  00000-0  27079-3 0  9993,2 52113  53.2198  28.4077 0001474  94.7317 265.3844 15.08843896113534,6917.868,95.437,540.753,538.714,0.0
52113.0,STARLINK-3736,PAYLOAD,2024-03-30 02:39:12,15.08843676,0.0001332,53.2191,24.5423,95.7554,264.359,0.00022357,3.272e-05,0.0,0 STARLINK-3736,1 52113U 22029AB  24090.11056574  .00003272  00000-0  22357-3 0  9997,2 52113  53.2191  24.5423 0001332  95.7554 264.3590 15.08843676113663,6917.869,95.437,540.656,538.813,0.0
52113.0,STARLINK-3736,PAYLOAD,2024-03-30 12:11:30,15.08857227,0.0001311,53.2198,22.7601,100.8617,259.2522,0.00038957,5.92e-05,0.0,0 STARLINK-3736,1 52113U 22029AB  24090.50799679  .00005920  00000-0  38957-3 0  9995,2 52113  53.2198  22.7601 0001311 100.8617 259.2522 15.08857227113725,6917.828,95.436,540.6,538.786,0.0
52113.0,STARLINK-3736,PAYLOAD,2024-03-31 02:30:00,15.08835075,0.0001284,53.2188,20.085,102.8426,257.271,4.4536e-05,4.21e-06,0.0,0 STARLINK-3736,1 52113U 22029AB  24091.10416769  .00000421  00000-0  44536-4 0  9990,2 52113  53.2188  20.0850 0001284 102.8426 257.2710 15.08835075113814,6917.895,95.438,540.649,538.872,0.0
52113.0,STARLINK-3736,PAYLOAD,2024-03-31 12:02:18,15.08846937,0.0001241,53.2198,18.2982,92.9241,267.1893,0.0002239,3.278e-05,0.0,0 STARLINK-3736,1 52113U 22029AB  24091.50160139  .00003278  00000-0  22390-3 0  9997,2 52113  53.2198  18.2982 0001241  92.9241 267.1893 15.08846937113874,6917.859,95.437,540.583,538.866,0.0
52113.0,STARLINK-3736,PAYLOAD,2024-04-01 03:56:10,15.0883712,0.0001483,53.22,15.3254,86.8506,273.2656,1.0707e-06,-2.71e-06,0.0,0 STARLINK-3736,1 52113U 22029AB  24092.16401018 -.00000271  00000-0  10707-5 0  9996,2 52113  53.2200  15.3254 0001483  86.8506 273.2656 15.08837120113972,6917.889,95.438,540.78,538.728,0.0
52113.0,STARLINK-3736,PAYLOAD,2024-04-01 11:53:05,15.08850556,0.0001462,53.2199,13.8393,85.7449,274.371,0.00019256,2.779e-05,0.0,0 STARLINK-3736,1 52113U 22029AB  24092.49520439  .00002779  00000-0  19256-3 0  9991,2 52113  53.2199  13.8393 0001462  85.7449 274.3710 15.08850556114025,6917.848,95.437,540.725,538.702,0.0
52113.0,STARLINK-3736,PAYLOAD,2024-04-02 02:11:34,15.08840805,0.0001417,53.2187,11.1656,88.5054,271.6101,0.00017552,2.507e-05,0.0,0 STARLINK-3736,1 52113U 22029AB  24093.09136949  .00002507  00000-0  17552-3 0  9993,2 52113  53.2187  11.1656 0001417  88.5054 271.6101 15.08840805114118,6917.878,95.438,540.723,538.763,0.0
52113.0,STARLINK-3736,PAYLOAD,2024-04-02 11:43:53,15.08841691,0.0001571,53.2192,9.3806,81.9828,278.1343,6.5444e-05,7.54e-06,0.0,0 STARLINK-3736,1 52113U 22029AB  24093.48880961  .00000754  00000-0  65444-4 0  9992,2 52113  53.2192   9.3806 0001571  81.9828 278.1343 15.08841691114177,6917.875,95.437,540.827,538.653,0.0
52113.0,STARLINK-3736,PAYLOAD,2024-04-02 18:05:27,15.08817907,0.0002312,53.2186,8.1938,80.994,279.1314,-0.00023588,-4.038e-05,0.0,0 STARLINK-3736,1 52113U 22029AB  24093.75378591 -.00004038  00000-0 -23588-3 0  9996,2 52113  53.2186   8.1938 0002312  80.9940 279.1314 15.08817907114218,6917.948,95.439,541.412,538.213,0.0
